GNOMES-1                
1 46266U 20059B   26068.53916665  .00004080  00000+0  33422-3 0  9991
2 46266  97.8057 278.7760 0005451 357.8604   2.2595 14.99848479300657
STARLINK-32581          
1 62184U 24225X   26068.66643026  .00010126  00000+0  85493-3 0  9992
2 62184  70.0041 154.4250 0002705 271.8979  88.1870 14.98344725 70122
