[{"OBJECT_NAME":"GNOMES-1","OBJECT_ID":"2020-059B","EPOCH":"2026-03-09T12:56:23.998560","MEAN_MOTION":14.99848479,"ECCENTRICITY":0.00054513,"INCLINATION":97.8057,"RA_OF_ASC_NODE":278.776,"ARG_OF_PERICENTER":357.8604,"MEAN_ANOMALY":2.2595,"EPHEMERIS_TYPE":0,"CLASSIFICATION_TYPE":"U","NORAD_CAT_ID":46266,"ELEMENT_SET_NO":999,"REV_AT_EPOCH":30065,"BSTAR":0.00033421547,"MEAN_MOTION_DOT":4.08e-5,"MEAN_MOTION_DDOT":0},{"OBJECT_NAME":"STARLINK-32581","OBJECT_ID":"2024-225X","EPOCH":"2026-03-09T15:59:39.574464","MEAN_MOTION":14.98344725,"ECCENTRICITY":0.0002705,"INCLINATION":70.0041,"RA_OF_ASC_NODE":154.425,"ARG_OF_PERICENTER":271.8979,"MEAN_ANOMALY":88.187,"EPHEMERIS_TYPE":0,"CLASSIFICATION_TYPE":"U","NORAD_CAT_ID":62184,"ELEMENT_SET_NO":999,"REV_AT_EPOCH":7012,"BSTAR":0.00085492706,"MEAN_MOTION_DOT":0.00010126,"MEAN_MOTION_DDOT":0}]
